[{"OBJECT_NAME":"STARLINK-31559","OBJECT_ID":"2024-060L","EPOCH":"2026-03-09T16:26:14.378496","MEAN_MOTION":15.27580822,"ECCENTRICITY":0.00013126,"INCLINATION":42.9997,"RA_OF_ASC_NODE":259.7507,"ARG_OF_PERICENTER":280.0092,"MEAN_ANOMALY":80.0611,"EPHEMERIS_TYPE":0,"CLASSIFICATION_TYPE":"U","NORAD_CAT_ID":59358,"ELEMENT_SET_NO":999,"REV_AT_EPOCH":11006,"BSTAR":-2.4430215e-5,"MEAN_MOTION_DOT":-9.34e-6,"MEAN_MOTION_DDOT":0},{"OBJECT_NAME":"GEOSCAN 4 (RS92S4)","OBJECT_ID":"2025-155S","EPOCH":"2026-03-09T21:50:07.724832","MEAN_MOTION":15.30369837,"ECCENTRICITY":0.00070968,"INCLINATION":97.4465,"RA_OF_ASC_NODE":37.7626,"ARG_OF_PERICENTER":154.7045,"MEAN_ANOMALY":205.4544,"EPHEMERIS_TYPE":0,"CLASSIFICATION_TYPE":"U","NORAD_CAT_ID":64892,"ELEMENT_SET_NO":999,"REV_AT_EPOCH":6562,"BSTAR":0.00068609503,"MEAN_MOTION_DOT":0.00020121,"MEAN_MOTION_DDOT":0}]
